ONEWEB-0043             
1 45149U 20008U   23352.11292152 -.00000381  00000+0 -11272-2 0  9999
2 45149  87.8906 217.4233 0001140  61.9867 298.1376 13.10371842189518
ONEWEB-0044             
1 45150U 20008V   23351.68402389  .00000168  00000+0  44556-3 0  9990
2 45150  87.8911 217.5059 0001229  67.1331 292.9926 13.10376995188971
ONEWEB-0045             
1 45151U 20008W   23351.65316660  .00000469  00000+0  12888-2 0  9990
2 45151  87.8960 202.3851 0001515  87.9470 272.1831 13.11418211190809
ONEWEB-0047             
1 45152U 20008X   23351.67589214 -.00000249  00000+0 -75083-3 0  9995
2 45152  87.8908 217.5096 0001415  95.5298 264.5991 13.10371421188699
ONEWEB-0048             
1 45153U 20008Y   23351.67101961 -.00000444  00000+0 -13088-2 0  9998
2 45153  87.8914 217.5209 0001498  95.1305 264.9993 13.10377407188303
ONEWEB-0049             
1 45154U 20008Z   23352.13080490  .00002041  00000+0  58101-2 0  9992
2 45154  87.8916 217.4034 0001663  43.6292 316.4966 13.10363374189366
ONEWEB-0051             
1 45155U 20008AA  23351.65156291  .00000522  00000+0  14378-2 0  9992
2 45155  87.8971 202.4245 0001642  90.4413 269.6903 13.11418095191486
ONEWEB-0052             
1 45156U 20008AB  23351.66941407 -.00000540  00000+0 -15831-2 0  9992
2 45156  87.8920 217.4794 0001667  51.1430 308.9846 13.10367856188437
